NORAD_CAT_ID,OBJECT_NAME,OBJECT_TYPE,EPOCH,MEAN_MOTION,ECCENTRICITY,INCLINATION,RA_OF_ASC_NODE,ARG_OF_PERICENTER,MEAN_ANOMALY,BSTAR,MEAN_MOTION_DOT,MEAN_MOTION_DDOT,TLE_LINE0,TLE_LINE1,TLE_LINE2,SEMIMAJOR_AXIS,PERIOD,APOGEE,PERIGEE,DECAYED
52994.0,STARLINK-4256,PAYLOAD,2022-10-02 06:00:00,15.08820926,0.0002169,53.2173,325.5268,34.651,347.617,-0.00081893,-0.00013291,0.0,0 STARLINK-4256,1 52994U 22076J   22275.25001157 -.00013291  00000-0 -81893-3 0  9995,2 52994  53.2173 325.5268 0002169  34.6510 347.6170 15.08820926 13935,6917.939,95.439,541.304,538.303,0.0
52994.0,STARLINK-4256,PAYLOAD,2022-10-02 14:00:01,15.08794455,0.0002373,53.217,324.0318,31.8614,1.9792,0.0034371,0.00054771,0.0,0 STARLINK-4256,1 52994U 22076J   22275.58334491  .00054771  00000-0  34371-2 0  9995,2 52994  53.2170 324.0318 0002373  31.8614   1.9792 15.08794455  1308,6918.02,95.44,541.526,538.243,0.0
52994.0,STARLINK-4256,PAYLOAD,2022-10-02 22:00:00,15.08819246,0.0002184,53.2168,322.5338,35.0894,10.3242,0.0019091999999999,0.00030211,0.0,0 STARLINK-4256,1 52994U 22076J   22275.91667824  .00030211  00000-0  19092-2 0  9997,2 52994  53.2168 322.5338 0002184  35.0894  10.3242 15.08819246 14030,6917.944,95.439,541.32,538.298,0.0
52994.0,STARLINK-4256,PAYLOAD,2022-10-03 14:00:01,15.088459599999998,0.0002403,53.2165,319.5429,32.5083,36.0995,0.0018384,0.00029097,0.0,0 STARLINK-4256,1 52994U 22076J   22276.58334491  .00029097  00000-0  18384-2 0  9995,2 52994  53.2165 319.5429 0002403  32.5083  36.0995 15.08845960  1308,6917.861999999999,95.437,541.39,538.065,0.0
52994.0,STARLINK-4256,PAYLOAD,2022-10-03 22:00:00,15.08847622,0.0002142,53.2165,318.0446,33.4772,46.7622,-0.0011704,-0.00018871,0.0,0 STARLINK-4256,1 52994U 22076J   22276.91667824 -.00018871  00000-0 -11704-2 0  9990,2 52994  53.2165 318.0446 0002142  33.4772  46.7622 15.08847622  1308,6917.857,95.437,541.2040000000002,538.24,0.0
52994.0,STARLINK-4256,PAYLOAD,2022-10-04 14:00:01,15.08840558,0.0002351,53.2162,315.0537,28.7718,74.6641,0.00020849,3.031e-05,0.0,0 STARLINK-4256,1 52994U 22076J   22277.58334491  .00003031  00000-0  20849-3 0  9996,2 52994  53.2162 315.0537 0002351  28.7718  74.6641 15.08840558  1304,6917.879,95.438,541.37,538.117,0.0
52994.0,STARLINK-4256,PAYLOAD,2022-10-04 16:00:00,15.08852315,0.0002331,53.2161,314.6791,28.7585,167.574,-0.0015457,-0.00024813,0.0,0 STARLINK-4256,1 52994U 22076J   22277.66667824 -.00024813  00000-0 -15457-2 0  9995,2 52994  53.2161 314.6791 0002331  28.7585 167.5740 15.08852315 14300,6917.843000000003,95.437,541.32,538.095,0.0
52994.0,STARLINK-4256,PAYLOAD,2022-10-04 22:00:00,15.08822891,0.0002159,53.2162,313.5555,30.8065,84.2311,0.0014324,0.00022572,0.0,0 STARLINK-4256,1 52994U 22076J   22277.91667824  .00022572  00000-0  14324-2 0  9993,2 52994  53.2162 313.5555 0002159  30.8065  84.2311 15.08822891  1303,6917.933000000001,95.439,541.2909999999998,538.304,0.0
52994.0,STARLINK-4256,PAYLOAD,2022-10-05 14:00:01,15.08828293,0.0002476,53.216,310.5644,30.6619,107.6095,0.00060239,9.309e-05,0.0,0 STARLINK-4256,1 52994U 22076J   22278.58335648  .00009309  00000-0  60239-3 0  9993,2 52994  53.2160 310.5644 0002476  30.6619 107.6095 15.08828293  1303,6917.916,95.438,541.494,538.068,0.0
52994.0,STARLINK-4256,PAYLOAD,2022-10-05 22:00:00,15.08799843,0.0002247,53.2162,309.0664,32.1285,117.6742,0.003166,0.00050405,0.0,0 STARLINK-4256,1 52994U 22076J   22278.91667824  .00050405  00000-0  31660-2 0  9992,2 52994  53.2162 309.0664 0002247  32.1285 117.6742 15.08799843  1300,6918.003000000002,95.44,541.423,538.314,0.0
52994.0,STARLINK-4256,PAYLOAD,2022-10-06 14:00:01,15.08847074,0.0002506999999999,53.2161,306.0753,30.1394,142.8331,-0.0002301,-3.950000000000001e-05,0.0,0 STARLINK-4256,1 52994U 22076J   22279.58334491 -.00003950  00000-0 -23010-3 0  9993,2 52994  53.2161 306.0753 0002507  30.1394 142.8331 15.08847074  1307,6917.859,95.437,541.4580000000002,537.989,0.0
52994.0,STARLINK-4256,PAYLOAD,2022-10-06 22:42:55,15.08828956,0.0002238,53.2162,304.4433,32.1335,314.3605,0.0015809,0.00024954,0.0,0 STARLINK-4256,1 52994U 22076J   22279.94646991  .00024954  00000-0  15809-2 0  9995,2 52994  53.2162 304.4433 0002238  32.1335 314.3605 15.08828956  1301,6917.9140000000025,95.438,541.327,538.231,0.0
52994.0,STARLINK-4256,PAYLOAD,2022-10-07 00:00:00,15.08837903,0.0002243,53.2163,304.2028,32.6463,244.832,0.00058669,9.061e-05,0.0,0 STARLINK-4256,1 52994U 22076J   22280.00001157  .00009061  00000-0  58669-3 0  9997,2 52994  53.2163 304.2028 0002243  32.6463 244.8320 15.08837903 14658,6917.887,95.438,541.303,538.2,0.0
52994.0,STARLINK-4256,PAYLOAD,2022-10-07 14:00:01,15.08832638,0.0002444,53.2161,301.5859,27.3699,180.402,0.00019194,2.767e-05,0.0,0 STARLINK-4256,1 52994U 22076J   22280.58334491  .00002767  00000-0  19194-3 0  9996,2 52994  53.2161 301.5859 0002444  27.3699 180.4020 15.08832638  1303,6917.903,95.438,541.4590000000002,538.077,0.0
52994.0,STARLINK-4256,PAYLOAD,2022-10-07 22:00:00,15.08815279,0.0002181,53.2162,300.0877,28.6951,190.671,0.00099199,0.00015524,0.0,0 STARLINK-4256,1 52994U 22076J   22280.91667824  .00015524  00000-0  99199-3 0  9990,2 52994  53.2162 300.0877 0002181  28.6951 190.6710 15.08815279 14799,6917.956,95.439,541.33,538.312,0.0
52994.0,STARLINK-4256,PAYLOAD,2022-10-08 14:00:01,15.08841998,0.0002372,53.2159,297.0965,25.5436,216.968,-0.0015267,-0.00024506,0.0,0 STARLINK-4256,1 52994U 22076J   22281.58334491 -.00024506  00000-0 -15267-2 0  9990,2 52994  53.2159 297.0965 0002372  25.5436 216.9680 15.08841998  1302,6917.874,95.437,541.38,538.0980000000002,0.0
52994.0,STARLINK-4256,PAYLOAD,2022-10-08 22:00:00,15.08832105,0.0002129,53.2161,295.5981,28.5412,225.5763,0.00019756,2.857e-05,0.0,0 STARLINK-4256,1 52994U 22076J   22281.91667824  .00002857  00000-0  19756-3 0  9997,2 52994  53.2161 295.5981 0002129  28.5412 225.5763 15.08832105  1301,6917.905,95.438,541.242,538.297,0.0
52994.0,STARLINK-4256,PAYLOAD,2022-10-09 06:00:00,15.08840667,0.0002256999999999,53.216,294.1032,27.8786,237.828,-0.00024072,-4.118e-05,0.0,0 STARLINK-4256,1 52994U 22076J   22282.25001157 -.00004118  00000-0 -24072-3 0  9997,2 52994  53.2160 294.1032 0002257  27.8786 237.8280 15.08840667 14991,6917.878000000002,95.438,541.305,538.182,0.0
52994.0,STARLINK-4256,PAYLOAD,2022-10-09 14:00:01,15.08861417,0.0002358,53.2155,292.6069,27.7557,249.5409,-0.002438,-0.00038904,0.0,0 STARLINK-4256,1 52994U 22076J   22282.58334491 -.00038904  00000-0 -24380-2 0  9994,2 52994  53.2155 292.6069 0002358  27.7557 249.5409 15.08861417  1305,6917.815,95.436,541.311,538.049,0.0
52994.0,STARLINK-4256,PAYLOAD,2022-10-10 00:00:00,15.08838523,0.0002222,53.2157,290.7348,36.0798,345.7176,0.00018228,2.614e-05,0.0,0 STARLINK-4256,1 52994U 22076J   22283.00001157  .00002614  00000-0  18228-3 0  9994,2 52994  53.2157 290.7348 0002222  36.0798 345.7176 15.08838523  1308,6917.885,95.438,541.2869999999998,538.2130000000002,0.0
52994.0,STARLINK-4256,PAYLOAD,2022-10-10 08:00:01,15.08822503,0.0002484,53.2162,289.2373,35.0822,358.3154,0.001152,0.00018085,0.0,0 STARLINK-4256,1 52994U 22076J   22283.33334491  .00018085  00000-0  11520-2 0  9996,2 52994  53.2162 289.2373 0002484  35.0822 358.3154 15.08822503 15157,6917.934,95.439,541.5169999999998,538.08,0.0
52994.0,STARLINK-4256,PAYLOAD,2022-10-10 14:00:01,15.08898562,0.0002440999999999,53.216,288.1112,31.3582,280.7128,-0.010554,-0.00164716,0.0,0 STARLINK-4256,1 52994U 22076J   22283.58334491 -.00164716  00000-0 -10554-1 0  9993,2 52994  53.2160 288.1112 0002441  31.3582 280.7128 15.08898562  1308,6917.701,95.434,541.255,537.878,0.0
52994.0,STARLINK-4256,PAYLOAD,2022-10-10 22:00:01,15.08873133,0.0002234,53.2161,286.6119,32.5079,291.2491,-0.0098557,-0.00153957,0.0,0 STARLINK-4256,1 52994U 22076J   22283.91668981 -.00153957  00000-0 -98557-2 0  9999,2 52994  53.2161 286.6119 0002234  32.5079 291.2491 15.08873133  1300,6917.779,95.435,541.19,538.099,0.0
52994.0,STARLINK-4256,PAYLOAD,2022-10-11 06:00:00,15.0883986,0.0002484,53.2173,285.1109,37.6558,297.5671,-0.00027609,-4.68e-05,0.0,0 STARLINK-4256,1 52994U 22076J   22284.25001157 -.00004680  00000-0 -27609-3 0  9992,2 52994  53.2173 285.1109 0002484  37.6558 297.5671 15.08839860 15292,6917.880999999999,95.438,541.464,538.0269999999998,0.0
52994.0,STARLINK-4256,PAYLOAD,2022-10-11 14:00:01,15.08761571,0.0002186999999999,53.2165,283.6164,36.1145,310.7396,0.0073408999999999,0.00118256,0.0,0 STARLINK-4256,1 52994U 22076J   22284.58334491  .00118256  00000-0  73409-2 0  9999,2 52994  53.2165 283.6164 0002187  36.1145 310.7396 15.08761571  1305,6918.12,95.443,541.498,538.472,0.0
52994.0,STARLINK-4256,PAYLOAD,2022-10-11 22:00:00,15.08796923,0.0002285,53.2151,282.1296,36.1582,322.3706,0.0038974,0.00062215,0.0,0 STARLINK-4256,1 52994U 22076J   22284.91667824  .00062215  00000-0  38974-2 0  9996,2 52994  53.2151 282.1296 0002285  36.1582 322.3706 15.08796923  1307,6918.012,95.44,541.4580000000002,538.2959999999998,0.0
52994.0,STARLINK-4256,PAYLOAD,2022-10-12 14:00:01,15.08916898,0.0002517,53.2159,279.1323,29.748,351.9259,-0.015953,-0.00246162,0.0,0 STARLINK-4256,1 52994U 22076J   22285.58334491 -.00246162  00000-0 -15953-1 0  9999,2 52994  53.2159 279.1323 0002517  29.7480 351.9259 15.08916898 15496,6917.645,95.433,541.252,537.769,0.0
52994.0,STARLINK-4256,PAYLOAD,2022-10-12 22:00:00,15.08667784,0.0002414,53.2167,277.6297,36.0066,357.2689,0.0161539999999999,0.00265384,0.0,0 STARLINK-4256,1 52994U 22076J   22285.91667824  .00265384  00000-0  16154-1 0  9994,2 52994  53.2167 277.6297 0002414  36.0066 357.2689 15.08667784  1303,6918.406999999997,95.448,541.942,538.602,0.0
52994.0,STARLINK-4256,PAYLOAD,2022-10-13 06:00:00,15.08835202,0.0002421999999999,53.2162,276.1403,33.4806,11.347,-0.0027711,-0.00044117,0.0,0 STARLINK-4256,1 52994U 22076J   22286.25001157 -.00044117  00000-0 -27711-2 0  9996,2 52994  53.2162 276.1403 0002422  33.4806  11.3470 15.08835202 15597,6917.895,95.438,541.436,538.085,0.0
